[
    {
        "CCSDS_OMM_VERS": "3.0",
        "COMMENT": "GENERATED VIA SPACE-TRACK.ORG API",
        "CREATION_DATE": "2025-03-02T18:08:23",
        "ORIGINATOR": "18 SPCS",
        "OBJECT_NAME": "BEIDOU 4",
        "OBJECT_ID": "2010-024A",
        "CENTER_NAME": "EARTH",
        "REF_FRAME": "TEME",
        "TIME_SYSTEM": "UTC",
        "MEAN_ELEMENT_THEORY": "SGP4",
        "EPOCH": "2025-03-02T09:37:38.622144",
        "MEAN_MOTION": "1.00272580",
        "ECCENTRICITY": "0.00081200",
        "INCLINATION": "3.4003",
        "RA_OF_ASC_NODE": "62.3196",
        "ARG_OF_PERICENTER": "320.6454",
        "MEAN_ANOMALY": "1.4477",
        "EPHEMERIS_TYPE": "0",
        "CLASSIFICATION_TYPE": "U",
        "NORAD_CAT_ID": "36590",
        "ELEMENT_SET_NO": "999",
        "REV_AT_EPOCH": "5403",
        "BSTAR": "0.00000000000000",
        "MEAN_MOTION_DOT": "-0.00000137",
        "MEAN_MOTION_DDOT": "0.0000000000000",
        "SEMIMAJOR_AXIS": "42164.509",
        "PERIOD": "1436.086",
        "APOAPSIS": "35820.612",
        "PERIAPSIS": "35752.137",
        "OBJECT_TYPE": "PAYLOAD",
        "RCS_SIZE": "LARGE",
        "COUNTRY_CODE": "PRC",
        "LAUNCH_DATE": "2010-06-02",
        "SITE": "XSC",
        "DECAY_DATE": null,
        "FILE": "4657142",
        "GP_ID": "282083036",
        "TLE_LINE0": "0 BEIDOU 4",
        "TLE_LINE1": "1 36590U 10024A   25061.40114146 -.00000137  00000-0  00000-0 0  9997",
        "TLE_LINE2": "2 36590   3.4003  62.3196 0008120 320.6454   1.4477  1.00272580 54037"
    }
]